NORAD_CAT_ID,OBJECT_NAME,OBJECT_TYPE,EPOCH,MEAN_MOTION,ECCENTRICITY,INCLINATION,RA_OF_ASC_NODE,ARG_OF_PERICENTER,MEAN_ANOMALY,BSTAR,MEAN_MOTION_DOT,MEAN_MOTION_DDOT,TLE_LINE0,TLE_LINE1,TLE_LINE2,SEMIMAJOR_AXIS,PERIOD,APOGEE,PERIGEE,DECAYED
51779.0,STARLINK-3611,PAYLOAD,2024-08-14 14:37:29,15.08837537,0.0001199,53.2166,27.3403,63.9715,296.14,0.0013631,0.00021471,0.0,0 STARLINK-3611,1 51779U 22017M   24227.60937226  .00021471  00000-0  13631-2 0  9994,2 51779  53.2166  27.3403 0001199  63.9715 296.1400 15.08837537136205,6917.888,95.438,540.582,538.923,0.0
51779.0,STARLINK-3611,PAYLOAD,2024-08-14 17:48:15,15.08851197,0.0001165,53.2159,26.7447,47.8535,312.2556,0.0016275,0.00025716,0.0,0 STARLINK-3611,1 51779U 22017M   24227.74185000  .00025716  00000-0  16275-2 0  9997,2 51779  53.2159  26.7447 0001165  47.8535 312.2556 15.08851197137719,6917.846,95.437,540.517,538.905,0.0
51779.0,STARLINK-3611,PAYLOAD,2024-08-15 03:20:33,15.08884012,0.0001273,53.2171,24.9609,45.8724,314.2373,0.0016232,0.00025671,0.0,0 STARLINK-3611,1 51779U 22017M   24228.13927997  .00025671  00000-0  16232-2 0  9993,2 51779  53.2171  24.9609 0001273  45.8724 314.2373 15.08884012136283,6917.746,95.435,540.491,538.73,0.0
51779.0,STARLINK-3611,PAYLOAD,2024-08-15 17:39:01,15.08868974,0.0001872,53.2171,22.2843,68.3127,291.8064,0.0018633,0.00029515,0.0,0 STARLINK-3611,1 51779U 22017M   24228.73543811  .00029515  00000-0  18633-2 0  9996,2 51779  53.2171  22.2843 0001872  68.3127 291.8064 15.08868974137867,6917.792,95.436,540.952,538.362,0.0
51779.0,STARLINK-3611,PAYLOAD,2024-08-16 03:11:20,15.08875997,6.06e-05,53.2172,20.5002,31.0577,329.0451,0.0019878,0.00031521,0.0,0 STARLINK-3611,1 51779U 22017M   24229.13287135  .00031521  00000-0  19878-2 0  9997,2 51779  53.2172  20.5002 0000606  31.0577 329.0451 15.08875997137920,6917.77,95.435,540.055,539.216,0.0
51779.0,STARLINK-3611,PAYLOAD,2024-08-16 19:05:12,15.08847505,0.0003576,53.2163,17.5247,75.4012,284.7377,0.0011659,0.00018321,0.0,0 STARLINK-3611,1 51779U 22017M   24229.79528493  .00018321  00000-0  11659-2 0  9996,2 51779  53.2163  17.5247 0003576  75.4012 284.7377 15.08847505138022,6917.857,95.437,542.196,537.249,0.0
51779.0,STARLINK-3611,PAYLOAD,2024-08-18 15:35:59,15.08844033,0.000181,53.219,9.2014,70.5917,289.5271,0.00021438,3.126e-05,0.0,0 STARLINK-3611,1 51779U 22017M   24231.64999920  .00003126  00000-0  21438-3 0  9994,2 51779  53.2190   9.2014 0001810  70.5917 289.5271 15.08844033138301,6917.868,95.437,540.985,538.481,0.0
51779.0,STARLINK-3611,PAYLOAD,2024-08-19 09:05:14,15.088442,0.0001418,53.2171,5.9327,77.7869,282.3282,0.00015373,2.16e-05,0.0,0 STARLINK-3611,1 51779U 22017M   24232.37863698  .00002160  00000-0  15373-3 0  9995,2 51779  53.2171   5.9327 0001418  77.7869 282.3282 15.08844200136924,6917.868,95.437,540.714,538.752,0.0
51779.0,STARLINK-3611,PAYLOAD,2024-08-20 12:06:47,15.08839744,0.0001895,53.2187,0.8733,122.1161,238.0015,1.9873e-05,2.8e-07,0.0,0 STARLINK-3611,1 51779U 22017M   24233.50472039  .00000028  00000-0  19873-4 0  9997,2 51779  53.2187   0.8733 0001895 122.1161 238.0015 15.08839744138588,6917.881,95.438,541.057,538.435,0.0
51779.0,STARLINK-3611,PAYLOAD,2024-08-20 13:42:10,15.0884238,0.0001302,53.2192,0.5824,94.943,265.1711,-2.3181e-05,-6.57e-06,0.0,0 STARLINK-3611,1 51779U 22017M   24233.57096033 -.00000657  00000-0 -23181-4 0  9997,2 51779  53.2192   0.5824 0001302  94.9430 265.1711 15.08842380137101,6917.873,95.437,540.639,538.837,0.0
51779.0,STARLINK-3611,PAYLOAD,2024-08-20 18:28:20,15.08846651,0.000172,53.2174,359.6835,119.318,240.7984,5.634e-05,6.09e-06,0.0,0 STARLINK-3611,1 51779U 22017M   24233.76967634  .00000609  00000-0  56340-4 0  9990,2 51779  53.2174 359.6835 0001720 119.3180 240.7984 15.08846651138623,6917.86,95.437,540.915,538.535,0.0
51779.0,STARLINK-3611,PAYLOAD,2024-08-21 13:32:59,15.08809741,0.0001621,53.2181,356.1147,116.9676,243.1482,0.00089967,0.00014047,0.0,0 STARLINK-3611,1 51779U 22017M   24234.56457932  .00014047  00000-0  89967-3 0  9995,2 51779  53.2181 356.1147 0001621 116.9676 243.1482 15.08809741138744,6917.973,95.439,540.959,538.716,0.0
51779.0,STARLINK-3611,PAYLOAD,2024-08-21 15:08:22,15.08813881,0.0001345,53.2174,355.8179,109.8415,250.2722,0.00065617,0.00010163,0.0,0 STARLINK-3611,1 51779U 22017M   24234.63081745  .00010163  00000-0  65617-3 0  9999,2 51779  53.2174 355.8179 0001345 109.8415 250.2722 15.08813881137264,6917.96,95.439,540.756,538.895,0.0
